2017-050D               
1 42924U 17050D   17251.23495963  .00535295  00000-0  16058-1 0  9991
2 42924  24.7433 161.8487 0110959 153.7461 206.9769 15.25612332  1979
MINOTAUR DEB            
1 42927U 17050G   17252.11604741  .00006871  00000-0  17428-3 0  9995
2 42927  24.5306 154.8177 0159051 163.6772 196.9114 15.24314343  1666
IRNSS-1H & PSLV R/B     
1 42928U 17051A   17252.05071449  .00407477 -19421-5  73778-3 0  9993
2 42928  19.1802 105.0677 3255634 207.8173 320.8631  9.10214394   770
PSLV DEB                
1 42929U 17051B   17247.96551252  .02870716 -19266-5  88848-2 0  9995
2 42929  19.1409 116.1383 3199363 187.7119 333.3215  9.18782995   382
PSLV DEB                
1 42930U 17051C   17250.96232703  .02262041 -22084-5  60890-2 0  9993
2 42930  19.1785 107.5827 3119521 203.5744 323.7225  9.35599742   678
ATLAS CENTAUR 2         
1 00694U 63047A   17251.82344708  .00000688  00000-0  79682-4 0  9999
2 00694  30.3566  64.7065 0587677  37.1130 326.8661 14.02127760694468
THOR AGENA D R/B        
1 00733U 64002A   17252.55160749  .00000062  00000-0  40775-4 0  9994
2 00733  99.1256  82.3137 0032988 294.6927  65.0822 14.32285318794381
SL-3 R/B                
1 00877U 64053B   17251.99844577 -.00000027  00000-0  19129-4 0  9995
2 00877  65.0785  47.4832 0049929  73.7461 286.9123 14.59302799813758
SL-8 R/B                
1 02802U 67045B   17251.78806185  .00000110  00000-0  39385-4 0  9997
2 02802  74.0136  11.0604 0065889  44.6304 316.0129 14.43660403641042
SL-8 R/B                
1 03230U 68040B   17252.55794642  .00000946  00000-0  10084-3 0  9990
2 03230  74.0346  74.3344 0030422   1.5234 358.6034 14.90196445648083
OAO 2                   
1 03597U 68110A   17252.14436558  .00000064  00000-0  23016-4 0  9999
2 03597  34.9935 281.3535 0005797 198.4750 161.5731 14.45780708569613
ISIS 1                  
1 03669U 69009A   17252.23832140  .00000043  00000-0  29125-4 0  9998
2 03669  88.4352 139.0383 1711111 226.8454 117.6524 11.29440722998124
SERT 2                  
1 04327U 70009A   17252.23086081 -.00000002  00000-0  54860-4 0  9997
2 04327  99.3085 341.5850 0004934 177.6540 236.0941 13.58467436358499
SL-3 R/B                
1 04814U 70113B   17252.25065207  .00004912  00000-0  15126-3 0  9997
2 04814  81.1415 289.9648 0027028 147.8465 212.4428 15.33050500547921
SL-3 R/B                
1 05118U 71028B   17252.22236050  .00001571  00000-0  83567-4 0  9997
2 05118  81.2537  58.0142 0047716 349.2606  10.7597 15.13671367516649
ASTEX 1                 
1 05560U 71089A   17252.19236740  .00000185  00000-0  49915-4 0  9996
2 05560  92.7088 230.6588 0018506  94.1695 266.1625 14.47909961413048
SL-8 R/B                
1 05730U 71119B   17252.23537096  .00005298  00000-0  34245-3 0  9991
2 05730  73.8981 349.0941 0699701 213.7606 141.7072 14.01886525217473
COSMOS 482 DESCENT CRAFT
1 06073U 72023E   17252.22365726  .00038651  57505-5  18132-3 0  9998
2 06073  52.0579 187.5838 1531142 133.9389 239.8565 12.67462520371700
OAO 3 (COPERNICUS)      
1 06153U 72065A   17252.48867067  .00000108  00000-0  27668-4 0  9990
2 06153  35.0071 291.9612 0006548  32.5236  74.3729 14.57845599393191
ATLAS CENTAUR R/B       
1 06155U 72065B   17252.54419388  .00000424  00000-0  70627-4 0  9992
2 06155  35.0050 353.5121 0037987   9.6135 350.5284 14.71362833404395
SL-8 R/B                
1 07004U 73107B   17252.48261599  .00027254  00000-0  39502-3 0  9992
2 07004  73.9322 239.8293 0168197  87.9640 274.0819 15.40949976250171
SL-8 R/B                
1 08459U 75112B   17252.28757488  .00000034  00000-0  20410-4 0  9996
2 08459  74.0624 317.6222 0014829 107.2320 253.0457 14.36758219186055
SL-3 R/B                
1 10114U 77057B   17252.26286706  .00001057  00000-0  56896-4 0  9998
2 10114  97.2045  70.3524 0014878  31.5290 328.6832 15.16798712196099
SEASAT 1                
1 10967U 78064A   17252.52191333 -.00000000  00000-0  40314-4 0  9999
2 10967 108.0127 115.6994 0001240 304.3762  55.7265 14.43661236 58774
METEOR 1-29             
1 11251U 79005A   17252.22334199  .00004325  00000-0  12312-3 0  9997
2 11251  97.7412 113.2400 0017706 131.6707 228.6055 15.36561162652983
SL-14 R/B               
1 11267U 79011B   17252.17747133  .00000211  00000-0  19797-4 0  9996
2 11267  82.5270 150.2010 0015789 314.4420  45.5505 14.88853635 66760
SL-8 R/B                
1 11574U 79089B   17251.94851583  .00000051  00000-0  24286-4 0  9992
2 11574  74.0686  64.4341 0016695 305.9124  54.0481 14.40637429989013
SL-14 R/B               
1 11672U 80005B   17252.44630820  .00000229  00000-0  22240-4 0  9991
2 11672  82.5184 359.8451 0017726  41.6040 318.6522 14.87880883 35921
SL-8 R/B                
1 12139U 81003B   17252.16314293  .00004428  00000-0  21775-3 0  9997
2 12139  82.9452  99.4565 0473033 231.6806 124.0979 14.54111290859172
SL-3 R/B                
1 12465U 81046B   17252.50297080  .00001595  00000-0  85339-4 0  9997
2 12465  81.2419 287.5697 0035395  40.8508 319.5362 15.13921783980218
METEOR PRIRODA          
1 12585U 81065A   17252.01669023  .00001876  00000-0  88846-4 0  9995
2 12585  97.4391 230.1566 0016438 105.3726 254.9327 15.20462822969193
SL-3 R/B                
1 12904U 81103B   17252.26544675  .00001033  00000-0  69936-4 0  9999
2 12904  81.1788 179.5416 0029007 146.0734 214.2352 15.05327702505255
SL-3 R/B                
1 13068U 82013B   17252.22503927  .00000363  00000-0  22520-4 0  9996
2 13068  81.2036 126.5369 0022352  42.3906 317.9040 15.06984345935882
SL-3 R/B                
1 13154U 82039B   17252.22836832  .00000777  00000-0  62277-4 0  9996
2 13154  81.1841 135.5861 0040754  19.6670 340.6109 14.98361893916042
SL-3 R/B                
1 13403U 82079B   17252.26998029  .00001667  00000-0  10946-3 0  9992
2 13403  81.1723 173.0367 0034031   2.2555 357.8815 15.06651112909162
SL-3 R/B                
1 13819U 83010B   17252.00177421  .00001240  00000-0  64116-4 0  9992
2 13819  81.1145  61.8157 0033606  59.9733 300.4822 15.15030736886121
COSMOS 1455             
1 14032U 83037A   17252.51849515  .00003045  00000-0  15132-3 0  9993
2 14032  82.5196   4.0009 0017096 352.0533   8.0427 15.17166210874167
SL-3 R/B                
1 14208U 83075B   17252.23807714  .00001185  00000-0  74580-4 0  9990
2 14208  97.3414 259.3592 0038756 198.7923 161.1879 15.10460622859897
COSMOS 1500             
1 14372U 83099A   17252.55476116  .00002390  00000-0  11707-3 0  9991
2 14372  82.5125 260.2108 0016435 147.3532 331.2536 15.17566127850596
COSMOS 1536             
1 14699U 84013A   17252.22443324  .00000577  00000-0  38400-4 0  9994
2 14699  82.5235 248.1601 0014167 125.6212 234.6337 15.05117934825735
COSMOS 1544             
1 14819U 84027A   17252.22402202  .00004470  00000-0  17196-3 0  9997
2 14819  82.4833 303.3043 0015997 103.7259 256.5761 15.26007526828393
SL-14 R/B               
1 14820U 84027B   17252.16808294  .00000147  00000-0  14844-4 0  9998
2 14820  82.5400 266.8646 0019792 140.1597 220.1076 14.83565176808414
ERBS                    
1 15354U 84108B   17252.17885720  .00008439  00000-0  19016-3 0  9998
2 15354  57.0076 136.6497 0005197 261.2793  98.7674 15.44152597810905
SL-8 R/B                
1 15483U 85006B   17252.26036181  .00000122  00000-0  50832-4 0  9991
2 15483  74.0460 200.9650 0018532 165.1041 298.1978 14.36194112708341
COSMOS 1626             
1 15494U 85009A   17252.24363842  .00003693  00000-0  15768-3 0  9995
2 15494  82.4822 165.5818 0003962 104.2378 255.9299 15.22583947781272
SL-12 R/B(2)            
1 15772U 85042D   17252.25209747  .00000023  00000-0  32227-4 0  9999
2 15772  71.1087 158.3351 0037762 272.3384 216.6630 14.21208769673390
SL-14 R/B               
1 15945U 85069B   17252.50784343  .00000229  00000-0  24611-4 0  9994
2 15945  82.5266  54.0484 0019926   8.4536 351.7011 14.83937946733536
SL-3 R/B                
1 16111U 85090B   17252.28147010  .00014976  00000-0  23613-3 0  9997
2 16111  97.3686   6.0114 0017358  69.3729 290.9384 15.53467806757349
SL-16 R/B               
1 16182U 85097B   17252.26208691  .00000214  00000-0  13189-3 0  9990
2 16182  71.0027 191.1745 0009459 297.8471 211.9379 14.16217736648121
SL-14 R/B               
1 16496U 86006B   17252.21415476  .00000171  00000-0  17605-4 0  9995
2 16496  82.5238 290.6353 0020104 148.6156 277.2845 14.84041755688716
COSMOS 1743             
1 16719U 86034A   17252.56458816  .00001820  00000-0  96038-4 0  9996
2 16719  82.5494 269.2746 0012191   2.7324 116.8345 15.14880819708486
SL-14 R/B               
1 16792U 86046B   17252.26368955  .00000170  00000-0  17778-4 0  9992
2 16792  82.4825 123.3105 0024766  19.7847 114.0940 14.83144633666253
SL-14 R/B               
1 16882U 86055B   17252.24324472  .00000197  00000-0  21150-4 0  9994
2 16882  82.5234 154.8711 0021085 127.1672 348.1930 14.83128155659253
AJISAI (EGS)            
1 16908U 86061A   17252.55431302 -.00000093  00000-0  28884-4 0  9992
2 16908  50.0080 275.1313 0011357 308.7631 229.4066 12.44486451 81946
COSMOS 1812             
1 17295U 87003A   17252.51219639  .00001228  00000-0  64933-4 0  9997
2 17295  82.5123  62.0423 0003321 171.9784 188.1502 15.14582304671721
SL-14 R/B               
1 17567U 87024B   17252.22133576  .00000172  00000-0  17803-4 0  9996
2 17567  82.5284 120.3920 0020685  70.6032 289.7417 14.83665582627846
COSMOS 1833             
1 17589U 87027A   17251.74507531 -.00000233  00000-0 -99002-4 0  9996
2 17589  70.9183   9.1879 0029512 188.5006 171.5620 14.12869366572104
SL-16 R/B               
1 17590U 87027B   17252.29284396 -.00000219  00000-0 -85670-4 0  9990
2 17590  71.0049 332.8711 0005385 201.4110 158.6790 14.16746410575805
SL-14 R/B               
1 17912U 87038B   17252.23811584  .00000181  00000-0  19404-4 0  9997
2 17912  82.5044 331.5137 0019180 317.1196  42.8521 14.82942934619100
